COSMOS 2251 DEB         
1 34319U 93036NR  17345.88540233  .00001674  00000-0  40519-3 0  9994
2 34319  74.0310 169.5587 0026990 230.2429 129.6356 14.53617976463819
